<!DOCTYPE html>
<html lang="en"><head><meta charset="UTF-8"/><meta name="viewport" content="width=device-width, initial-scale=1.0"/><title>Quick Start · SatelliteToolboxPropagators.jl</title><meta name="title" content="Quick Start · SatelliteToolboxPropagators.jl"/><meta property="og:title" content="Quick Start · SatelliteToolboxPropagators.jl"/><meta property="twitter:title" content="Quick Start · SatelliteToolboxPropagators.jl"/><meta name="description" content="Documentation for SatelliteToolboxPropagators.jl."/><meta property="og:description" content="Documentation for SatelliteToolboxPropagators.jl."/><meta property="twitter:description" content="Documentation for SatelliteToolboxPropagators.jl."/><meta property="og:url" content="https://juliaspace.github.io/SatelliteToolboxPropagators.jl/stable/man/quick_start/"/><meta property="twitter:url" content="https://juliaspace.github.io/SatelliteToolboxPropagators.jl/stable/man/quick_start/"/><link rel="canonical" href="https://juliaspace.github.io/SatelliteToolboxPropagators.jl/stable/man/quick_start/"/><script data-outdated-warner src="../../assets/warner.js"></script><link href="https://cdnjs.cloudflare.com/ajax/libs/lato-font/3.0.0/css/lato-font.min.css" rel="stylesheet" type="text/css"/><link href="https://cdnjs.cloudflare.com/ajax/libs/juliamono/0.050/juliamono.min.css" rel="stylesheet" type="text/css"/><link href="https://cdnjs.cloudflare.com/ajax/libs/font-awesome/6.4.2/css/fontawesome.min.css" rel="stylesheet" type="text/css"/><link href="https://cdnjs.cloudflare.com/ajax/libs/font-awesome/6.4.2/css/solid.min.css" rel="stylesheet" type="text/css"/><link href="https://cdnjs.cloudflare.com/ajax/libs/font-awesome/6.4.2/css/brands.min.css" rel="stylesheet" type="text/css"/><link href="https://cdnjs.cloudflare.com/ajax/libs/KaTeX/0.16.8/katex.min.css" rel="stylesheet" type="text/css"/><script>documenterBaseURL="../.."</script><script src="https://cdnjs.cloudflare.com/ajax/libs/require.js/2.3.6/require.min.js" data-main="../../assets/documenter.js"></script><script src="../../search_index.js"></script><script src="../../siteinfo.js"></script><script src="../../../versions.js"></script><link class="docs-theme-link" rel="stylesheet" type="text/css" href="../../assets/themes/documenter-dark.css" data-theme-name="documenter-dark" data-theme-primary-dark/><link class="docs-theme-link" rel="stylesheet" type="text/css" href="../../assets/themes/documenter-light.css" data-theme-name="documenter-light" data-theme-primary/><script src="../../assets/themeswap.js"></script></head><body><div id="documenter"><nav class="docs-sidebar"><a class="docs-logo" href="../../"><img src="../../assets/logo.png" alt="SatelliteToolboxPropagators.jl logo"/></a><div class="docs-package-name"><span class="docs-autofit"><a href="../../">SatelliteToolboxPropagators.jl</a></span></div><button class="docs-search-query input is-rounded is-small is-clickable my-2 mx-auto py-1 px-2" id="documenter-search-query">Search docs (Ctrl + /)</button><ul class="docs-menu"><li><a class="tocitem" href="../../">Home</a></li><li class="is-active"><a class="tocitem" href>Quick Start</a></li><li><a class="tocitem" href="../usage/">Usage</a></li><li><span class="tocitem">Propagators</span><ul><li><a class="tocitem" href="../propagators/j2/">J2</a></li><li><a class="tocitem" href="../propagators/j2osc/">J2 Osculating</a></li><li><a class="tocitem" href="../propagators/j4/">J4</a></li><li><a class="tocitem" href="../propagators/j4osc/">J4 Osculating</a></li><li><a class="tocitem" href="../propagators/sgp4/">SGP4/SDP4</a></li><li><a class="tocitem" href="../propagators/twobody/">Two-Body</a></li></ul></li><li><a class="tocitem" href="../../lib/library/">Library</a></li></ul><div class="docs-version-selector field has-addons"><div class="control"><span class="docs-label button is-static is-size-7">Version</span></div><div class="docs-selector control is-expanded"><div class="select is-fullwidth is-size-7"><select id="documenter-version-selector"></select></div></div></div></nav><div class="docs-main"><header class="docs-navbar"><a class="docs-sidebar-button docs-navbar-link fa-solid fa-bars is-hidden-desktop" id="documenter-sidebar-button" href="#"></a><nav class="breadcrumb"><ul class="is-hidden-mobile"><li class="is-active"><a href>Quick Start</a></li></ul><ul class="is-hidden-tablet"><li class="is-active"><a href>Quick Start</a></li></ul></nav><div class="docs-right"><a class="docs-navbar-link" href="https://github.com/JuliaSpace/SatelliteToolboxPropagators.jl" title="View the repository on GitHub"><span class="docs-icon fa-brands"></span><span class="docs-label is-hidden-touch">GitHub</span></a><a class="docs-navbar-link" href="https://github.com/JuliaSpace/SatelliteToolboxPropagators.jl/blob/main/docs/src/man/quick_start.md" title="Edit source on GitHub"><span class="docs-icon fa-solid"></span></a><a class="docs-settings-button docs-navbar-link fa-solid fa-gear" id="documenter-settings-button" href="#" title="Settings"></a><a class="docs-article-toggle-button fa-solid fa-chevron-up" id="documenter-article-toggle-button" href="javascript:;" title="Collapse all docstrings"></a></div></header><article class="content" id="documenter-page"><h1 id="Quick-Start"><a class="docs-heading-anchor" href="#Quick-Start">Quick Start</a><a id="Quick-Start-1"></a><a class="docs-heading-anchor-permalink" href="#Quick-Start" title="Permalink"></a></h1><p>Let&#39;s suppose we want to discover the ISS position on May 19, 2013, at 12:00:00. First, we need to obtain a description of its orbit and use the corresponding propagator. Using the <a href="https://celestrak.org">Celestrak</a> service, for example, we can obtain the ISS <a href="https://en.wikipedia.org/wiki/Two-line_element_set">TLE</a> on May 18, 2023:</p><pre><code class="language-text hljs">ISS (ZARYA)             
1 25544U 98067A   23138.86946505 -.00404279  00000+0 -74572-2 0  9994
2 25544  51.6431 113.8899 0006661 357.1286  88.0982 15.49924990397244</code></pre><p>Since we have a TLE, we must use the SGP4/SDP4 propagator. Let&#39;s initialize the algorithm first:</p><pre><code class="language-julia-repl hljs" style="display:block;">julia&gt; iss_tle = tle&quot;&quot;&quot;
           ISS (ZARYA)
           1 25544U 98067A   23138.86946505 -.00404279  00000+0 -74572-2 0  9994
           2 25544  51.6431 113.8899 0006661 357.1286  88.0982 15.49924990397244&quot;&quot;&quot;</code><code class="nohighlight hljs ansi" style="display:block;">TLE:
<span class="sgr1">                      Name : </span>ISS (ZARYA)
<span class="sgr1">          Satellite number : </span>25544
<span class="sgr1">  International designator : </span>98067A
<span class="sgr1">        Epoch (Year / Day) : </span>23 / 138.86946505 (2023-05-18T20:52:01.780)
<span class="sgr1">        Element set number : </span>999
<span class="sgr1">              Eccentricity : </span>  0.00066610
<span class="sgr1">               Inclination : </span> 51.64310000 deg
<span class="sgr1">                      RAAN : </span>113.88990000 deg
<span class="sgr1">       Argument of perigee : </span>357.12860000 deg
<span class="sgr1">              Mean anomaly : </span> 88.09820000 deg
<span class="sgr1">           Mean motion (n) : </span> 15.49924990 revs / day
<span class="sgr1">         Revolution number : </span>39724
<span class="sgr1">                        B* : </span>  -0.0074572 1 / er
<span class="sgr1">                     ṅ / 2 : </span> -0.00404279 rev / day²
<span class="sgr1">                     n̈ / 6 : </span>           0 rev / day³</code><br/><code class="language-julia-repl hljs" style="display:block;">julia&gt; orbp = Propagators.init(Val(:SGP4), iss_tle)</code><code class="nohighlight hljs ansi" style="display:block;">OrbitPropagatorSgp4{Float64, Float64}:
<span class="sgr1">   Propagator name :</span> SGP4 Orbit Propagator
<span class="sgr1">  Propagator epoch :</span> 2023-05-18T20:52:01.780
<span class="sgr1">  Last propagation :</span> 2023-05-18T20:52:01.780</code></pre><p>Now we can propagate the ISS orbit to the desired epoch and obtain its state vector and mean elements:</p><pre><code class="language-julia-repl hljs" style="display:block;">julia&gt; Propagators.propagate_to_epoch!(orbp, date_to_jd(2023, 5, 19, 12, 0, 0))</code><code class="nohighlight hljs ansi" style="display:block;">([-2.7473591812349055e6, 6.194023092402147e6, 470636.34213714604], [-4186.242303388817, -2319.0180933770293, 5989.510493513584])</code><br/><code class="language-julia-repl hljs" style="display:block;">julia&gt; Propagators.mean_elements(orbp)</code><code class="nohighlight hljs ansi" style="display:block;">KeplerianElements{Float64, Float64}:
<span class="sgr1">           Epoch : </span>   2.46008e6 (2023-05-19T12:00:00)
<span class="sgr1"> Semi-major axis : </span>6796.64        km
<span class="sgr1">    Eccentricity : </span>   0.000670975
<span class="sgr1">     Inclination : </span>  51.6431      °
<span class="sgr1">            RAAN : </span> 110.767       °
<span class="sgr1"> Arg. of Perigee : </span> 359.796       °
<span class="sgr1">    True Anomaly : </span>   5.37263     °</code></pre><div class="admonition is-info"><header class="admonition-header">Note</header><div class="admonition-body"><p>Since we are using a TLE, the state vector is represented in the TEME reference frame.</p></div></div></article><nav class="docs-footer"><a class="docs-footer-prevpage" href="../../">« Home</a><a class="docs-footer-nextpage" href="../usage/">Usage »</a><div class="flexbox-break"></div><p class="footer-message">Powered by <a href="https://github.com/JuliaDocs/Documenter.jl">Documenter.jl</a> and the <a href="https://julialang.org/">Julia Programming Language</a>.</p></nav></div><div class="modal" id="documenter-settings"><div class="modal-background"></div><div class="modal-card"><header class="modal-card-head"><p class="modal-card-title">Settings</p><button class="delete"></button></header><section class="modal-card-body"><p><label class="label">Theme</label><div class="select"><select id="documenter-themepicker"><option value="auto">Automatic (OS)</option><option value="documenter-light">documenter-light</option><option value="documenter-dark">documenter-dark</option></select></div></p><hr/><p>This document was generated with <a href="https://github.com/JuliaDocs/Documenter.jl">Documenter.jl</a> version 1.4.1 on <span class="colophon-date" title="Friday 24 May 2024 17:07">Friday 24 May 2024</span>. Using Julia version 1.10.3.</p></section><footer class="modal-card-foot"></footer></div></div></div></body></html>
